{
  "links" : {
    "next" : "https://api.nasa.gov/neo/rest/v1/feed?start_date=2016-04-09&end_date=2016-04-09&detailed=true&api_key=t0TVs3DtDT2H8Oy2Zy8m2eVrNsAVKAexjcZXUckd",
    "prev" : "https://api.nasa.gov/neo/rest/v1/feed?start_date=2016-04-07&end_date=2016-04-07&detailed=true&api_key=t0TVs3DtDT2H8Oy2Zy8m2eVrNsAVKAexjcZXUckd",
    "self" : "https://api.nasa.gov/neo/rest/v1/feed?start_date=2016-04-08&end_date=2016-04-08&detailed=true&api_key=t0TVs3DtDT2H8Oy2Zy8m2eVrNsAVKAexjcZXUckd"
  },
  "element_count" : 8,
  "near_earth_objects" : {
    "2016-04-08" : [ {
      "links" : {
        "self" : "https://api.nasa.gov/neo/rest/v1/neo/3746214?api_key=t0TVs3DtDT2H8Oy2Zy8m2eVrNsAVKAexjcZXUckd"
      },
      "neo_reference_id" : "3746214",
      "name" : "(2016 EF85)",
      "nasa_jpl_url" : "http://ssd.jpl.nasa.gov/sbdb.cgi?sstr=3746214",
      "absolute_magnitude_h" : 25.0,
      "estimated_diameter" : {
        "kilometers" : {
          "estimated_diameter_min" : 0.02658,
          "estimated_diameter_max" : 0.0594346868
        },
        "meters" : {
          "estimated_diameter_min" : 26.58,
          "estimated_diameter_max" : 59.4346868419
        },
        "miles" : {
          "estimated_diameter_min" : 0.0165160412,
          "estimated_diameter_max" : 0.0369309908
        },
        "feet" : {
          "estimated_diameter_min" : 87.2047272,
          "estimated_diameter_max" : 194.9956979785
        }
      },
      "is_potentially_hazardous_asteroid" : false,
      "close_approach_data" : [ {
        "close_approach_date" : "2016-04-08",
        "epoch_date_close_approach" : 1460098800000,
        "relative_velocity" : {
          "kilometers_per_second" : "5.5866874715",
          "kilometers_per_hour" : "20112.0748975651",
          "miles_per_hour" : "12496.8612051009"
        },
        "miss_distance" : {
          "astronomical" : "0.0854491638",
          "lunar" : "33.2397270203",
          "kilometers" : "12783013",
          "miles" : "7942996.5"
        },
        "orbiting_body" : "Earth"
      } ],
      "orbital_data" : {
        "orbit_id" : "10",
        "orbit_determination_date" : "2017-04-06 08:27:37",
        "orbit_uncertainty" : "6",
        "minimum_orbit_intersection" : ".0780086",
        "jupiter_tisserand_invariant" : "4.389",
        "epoch_osculation" : "2458000.5",
        "eccentricity" : ".3166926788056257",
        "semi_major_axis" : "1.546126914474942",
        "inclination" : "8.327346625739878",
        "ascending_node_longitude" : ".1769098115813632",
        "orbital_period" : "702.2085891774012",
        "perihelion_distance" : "1.056479840156396",
        "perihelion_argument" : "211.2888010044574",
        "aphelion_distance" : "2.035773988793488",
        "perihelion_time" : "2458203.317307121799",
        "mean_anomaly" : "256.022020110321",
        "mean_motion" : ".5126681808630684",
        "equinox" : "J2000"
      }
    }, {
      "links" : {
        "self" : "https://api.nasa.gov/neo/rest/v1/neo/3749075?api_key=t0TVs3DtDT2H8Oy2Zy8m2eVrNsAVKAexjcZXUckd"
      },
      "neo_reference_id" : "3749075",
      "name" : "(2016 GH3)",
      "nasa_jpl_url" : "http://ssd.jpl.nasa.gov/sbdb.cgi?sstr=3749075",
      "absolute_magnitude_h" : 27.2,
      "estimated_diameter" : {
        "kilometers" : {
          "estimated_diameter_min" : 0.0096506147,
          "estimated_diameter_max" : 0.0215794305
        },
        "meters" : {
          "estimated_diameter_min" : 9.6506146958,
          "estimated_diameter_max" : 21.5794304844
        },
        "miles" : {
          "estimated_diameter_min" : 0.0059966121,
          "estimated_diameter_max" : 0.0134088323
        },
        "feet" : {
          "estimated_diameter_min" : 31.6621227185,
          "estimated_diameter_max" : 70.7986587106
        }
      },
      "is_potentially_hazardous_asteroid" : false,
      "close_approach_data" : [ {
        "close_approach_date" : "2016-04-08",
        "epoch_date_close_approach" : 1460098800000,
        "relative_velocity" : {
          "kilometers_per_second" : "5.6459900519",
          "kilometers_per_hour" : "20325.5641869899",
          "miles_per_hour" : "12629.5151471883"
        },
        "miss_distance" : {
          "astronomical" : "0.0201673421",
          "lunar" : "7.8450956345",
          "kilometers" : "3016991.25",
          "miles" : "1874671.5"
        },
        "orbiting_body" : "Earth"
      } ],
      "orbital_data" : {
        "orbit_id" : "11",
        "orbit_determination_date" : "2017-04-06 08:26:46",
        "orbit_uncertainty" : "7",
        "minimum_orbit_intersection" : ".0217692",
        "jupiter_tisserand_invariant" : "3.982",
        "epoch_osculation" : "2458000.5",
        "eccentricity" : ".4263743008518394",
        "semi_major_axis" : "1.778746053398005",
        "inclination" : "2.486897036823817",
        "ascending_node_longitude" : "21.06501505844385",
        "orbital_period" : "866.5015643708043",
        "perihelion_distance" : "1.020334448487462",
        "perihelion_argument" : "171.7829903480858",
        "aphelion_distance" : "2.537157658308548",
        "perihelion_time" : "2458348.256752592308",
        "mean_anomaly" : "215.5196711916645",
        "mean_motion" : ".415463762331933",
        "equinox" : "J2000"
      }
    } ]
  }
}